     2.11           N: GPS NAV DATA                         RINEX VERSION / TYPE
teqc  2019Feb25                         20221121 12:24:25UTCPGM / RUN BY / DATE
OSX ker:10.11.6|Core i5|gcc 4.3 -m64|OSX ker:10.10+|=+      COMMENT
    4.6566D-09  1.4901D-08 -5.9605D-08 -1.1921D-07          ION ALPHA
    8.1920D+04  9.8304D+04 -6.5536D+04 -5.2429D+05          ION BETA
   -1.862645149231D-09 0.000000000000D+00   233472     1537 DELTA-UTC: A0,A1,T,W
                                                            END OF HEADER
25 09  6 22  0  0  0.0 4.734727554023D-04 1.762145984685D-11 0.000000000000D+00
    1.010000000000D+02-1.516250000000D+02 4.266963450441D-09-2.376017666536D+00
   -7.605180144310D-06 1.134210871533D-02 3.974884748459D-06 5.153651107788D+03
    8.640000000000D+04 3.352761268616D-08 2.151802624496D+00 1.844018697739D-07
    9.699141774586D-01 3.021250000000D+02-1.207873642065D+00-7.930330330090D-09
   -1.082187934614D-10 1.000000000000D+00 1.537000000000D+03 0.000000000000D+00
    2.800000000000D+00 0.000000000000D+00-7.450580596924D-09 1.010000000000D+02
    7.921800000000D+04 4.000000000000D+00
 6 09  6 22  0  0  0.0 1.689172349870D-04 1.273292582482D-11 0.000000000000D+00
    4.500000000000D+01 1.793750000000D+01 5.740239103999D-09-3.032968437801D+00
    1.110136508942D-06 6.003823131323D-03 5.310401320457D-06 5.153691740036D+03
    8.640000000000D+04 1.564621925354D-07-1.989902198957D+00 1.825392246246D-07
    9.334308072655D-01 2.605000000000D+02-1.335950136188D+00-8.439994416788D-09
    2.921550265724D-10 1.000000000000D+00 1.537000000000D+03 0.000000000000D+00
    2.000000000000D+00 0.000000000000D+00-4.656612873077D-09 4.500000000000D+01
    7.921800000000D+04 4.000000000000D+00
13 09  6 22  0  0  0.0 2.999091520905D-04 7.958078640513D-13 0.000000000000D+00
    6.800000000000D+01 3.537500000000D+01 3.899448141953D-09 1.757318000080D+00
    1.864507794380D-06 4.149704356678D-03-8.065253496170D-07 5.153690834045D+03
    8.640000000000D+04 8.381903171539D-08 1.256478739760D+00-1.434236764908D-07
    9.946018446105D-01 4.120312500000D+02 1.600723151242D+00-8.137481815924D-09
    2.585821995580D-10 1.000000000000D+00 1.537000000000D+03 0.000000000000D+00
    2.000000000000D+00 0.000000000000D+00-1.117587089539D-08 6.800000000000D+01
    7.921800000000D+04 4.000000000000D+00
24 09  6 22  0  0  0.0 1.986664719880D-04 2.955857780762D-12 0.000000000000D+00
    4.400000000000D+01 3.750000000000D+00 4.664480008601D-09-2.873668315500D+00
    1.490116119385D-08 6.653068121523D-03 9.836629033089D-06 5.153670234680D+03
    8.640000000000D+04-1.862645149231D-09-8.453751260444D-01 3.539025783539D-08
    9.504325573767D-01 1.869687500000D+02-6.508802449405D-01-7.774252400246D-09
   -9.493252574932D-10 1.000000000000D+00 1.537000000000D+03 0.000000000000D+00
    2.800000000000D+00 0.000000000000D+00-1.396983861923D-09 4.400000000000D+01
    7.921800000000D+04 4.000000000000D+00
23 09  6 22  0  0  0.0 3.902134485543D-04 0.000000000000D+00 0.000000000000D+00
    2.600000000000D+01 5.178125000000D+01 4.418041172006D-09 1.032861827870D+00
    2.725049853325D-06 6.229970837012D-03-1.037493348122D-06 5.153600141525D+03
    8.640000000000D+04 1.452863216400D-07 1.203831008394D+00 1.192092895508D-07
    9.701048629786D-01 4.035000000000D+02 2.897994083052D+00-8.366777081277D-09
    2.164375869228D-10 1.000000000000D+00 1.537000000000D+03 0.000000000000D+00
    2.000000000000D+00 0.000000000000D+00-2.002343535423D-08 2.600000000000D+01
    7.921800000000D+04 4.000000000000D+00
 3 09  6 22  0  0  0.0 4.098336212337D-04 5.115907697473D-12 0.000000000000D+00
    7.900000000000D+01 2.259375000000D+01 5.986320782861D-09 8.288976009236D-01
    1.491978764534D-06 1.195207412820D-02 5.898997187614D-06 5.153626106262D+03
    8.640000000000D+04-3.725290298462D-08-2.057725028256D+00 1.601874828339D-07
    9.260072470273D-01 2.486562500000D+02 9.057810704002D-01-8.818224457301D-09
    2.085801167705D-10 1.000000000000D+00 1.537000000000D+03 0.000000000000D+00
    2.800000000000D+00 0.000000000000D+00-4.190951585770D-09 7.900000000000D+01
    7.921800000000D+04 4.000000000000D+00
 7 09  6 22  0  0  0.0 1.662829890847D-05-6.821210263297D-13 0.000000000000D+00
    9.300000000000D+01-1.601250000000D+02 4.343395205559D-09-5.385525364634D-01
   -8.374452590942D-06 2.703759819269D-03 4.995614290237D-06 5.153669242859D+03
    8.640000000000D+04 3.725290298462D-09 2.246268566971D+00 1.862645149231D-08
    9.677515559025D-01 2.833125000000D+02 2.874594336792D+00-8.123909822024D-09
   -1.092902666640D-10 1.000000000000D+00 1.537000000000D+03 0.000000000000D+00
    2.000000000000D+00 0.000000000000D+00-1.071020960808D-08 9.300000000000D+01
    7.921800000000D+04 4.000000000000D+00
10 09  6 22  0  0  0.0-1.786369830370D-05-5.684341886081D-13 0.000000000000D+00
    1.190000000000D+02 1.749375000000D+02 4.125528987699D-09 2.101272780114D+00
    8.881092071533D-06 8.563458453864D-03 1.003593206406D-05 5.153630758286D+03
    8.640000000000D+04-1.192092895508D-07 1.748474480352D-01-7.823109626770D-08
    9.583898032965D-01 1.847500000000D+02 6.274116596083D-01-7.824254483034D-09
   -5.250218692682D-11 1.000000000000D+00 1.537000000000D+03 0.000000000000D+00
    2.800000000000D+00 0.000000000000D+00-2.793967723846D-09 1.190000000000D+02
    7.921800000000D+04 4.000000000000D+00
19 09  6 22  0  0  0.0 2.170167863369D-05-1.250555214938D-12 0.000000000000D+00
    3.600000000000D+01 1.071875000000D+01 5.248075746277D-09 1.574495388304D+00
    8.121132850647D-07 5.694696330465D-03 4.794448614120D-06 5.153606519699D+03
    8.640000000000D+04 1.322478055954D-07-1.869901024335D+00-2.607703208923D-08
    9.569888675933D-01 2.795625000000D+02-3.464329559460D-01-8.257843972348D-09
   -3.857303529318D-11 1.000000000000D+00 1.537000000000D+03 0.000000000000D+00
    2.000000000000D+00 0.000000000000D+00-1.443549990654D-08 3.600000000000D+01
    7.921800000000D+04 4.000000000000D+00
 8 09  6 22  0  0  0.0-2.086684107780D-04-1.591615728103D-12 0.000000000000D+00
    9.000000000000D+00-1.750000000000D+02 3.758370836945D-09-1.268151886839D+00
   -9.384006261826D-06 1.063942792825D-02 6.442889571190D-06 5.153651063919D+03
    8.640000000000D+04 1.862645149231D-08 2.307154698094D+00-1.024454832077D-07
    9.890005726665D-01 2.662500000000D+02 2.994108940473D+00-7.871042146213D-09
   -2.500104139373D-12 1.000000000000D+00 1.537000000000D+03 0.000000000000D+00
    2.000000000000D+00 0.000000000000D+00-3.725290298462D-09 9.000000000000D+00
    8.059200000000D+04 4.000000000000D+00
18 09  6 22  0  0  0.0-4.623876884580D-05 3.183231456205D-12 0.000000000000D+00
    5.200000000000D+01 1.574687500000D+02 4.246605459591D-09-2.791284348654D+00
    8.072704076767D-06 1.054619869683D-02 1.008249819279D-05 5.153613271713D+03
    8.640000000000D+04 3.725290298462D-09 1.799124420068D-01-7.264316082001D-08
    9.424259423605D-01 1.742187500000D+02-2.416042950115D+00-7.726750421598D-09
    7.036007363663D-11 1.000000000000D+00 1.537000000000D+03 0.000000000000D+00
    2.000000000000D+00 0.000000000000D+00-1.071020960808D-08 5.200000000000D+01
    8.371200000000D+04 4.000000000000D+00
22 09  6 22  0  0  0.0 1.970306038857D-04-5.684341886081D-13 0.000000000000D+00
    8.800000000000D+01 1.433437500000D+02 4.463043046514D-09 2.462261743153D+00
    7.497146725655D-06 5.081872106530D-03 9.901821613312D-06 5.153663372040D+03
    8.640000000000D+04 1.173466444016D-07 1.855432019905D-01-2.235174179077D-08
    9.400890901869D-01 1.767187500000D+02-1.893783852476D+00-7.872827934884D-09
    3.821587755898D-11 1.000000000000D+00 1.537000000000D+03 0.000000000000D+00
    4.000000000000D+00 0.000000000000D+00-1.769512891769D-08 8.800000000000D+01
    8.620200000000D+04 4.000000000000D+00
